{
  "type": "FeatureCollection",
  "features": [
    {
      "type": "Feature",
      "properties": {
        "norad_id": 66940,
        "name": "STARLINK-36121",
        "group": "last-30-days",
        "lat": 26.217566540391726,
        "lon": -175.5889954298973,
        "alt_km": 310.96830166326254,
        "timestamp": "2025-12-17T13:48:36.281704+00:00",
        "meta_object_name": "STARLINK-36121",
        "meta_object_id": "2025-286R",
        "meta_epoch": "2025-12-17T06:00:00.999648",
        "meta_mean_motion": 15.86749865,
        "meta_eccentricity": 8.275e-05,
        "meta_inclination": 53.1563,
        "meta_ra_of_asc_node": 27.7249,
        "meta_arg_of_pericenter": 83.628,
        "meta_mean_anomaly": 3.452,
        "meta_ephemeris_type": 0,
        "meta_classification_type": "U",
        "meta_norad_cat_id": 66940,
        "meta_element_set_no": 999,
        "meta_rev_at_epoch": 271,
        "meta_bstar": -0.0062239113,
        "meta_mean_motion_dot": -0.01416494,
        "meta_mean_motion_ddot": 0,
        "tle_line1": "1 66940U 25286R   25351.25001157 -.01416494  00000+0 -62239-2 0  9999",
        "tle_line2": "2 66940  53.1563  27.7249 0000827  83.6280   3.4520 15.86749865  2718"
      },
      "geometry": {
        "type": "Point",
        "coordinates": [
          -175.5889954298973,
          26.217566540391726
        ]
      }
    },
    {
      "type": "Feature",
      "properties": {
        "norad_id": 66941,
        "name": "STARLINK-36088",
        "group": "last-30-days",
        "lat": 29.296053459394674,
        "lon": -178.79077478151757,
        "alt_km": 310.5492394839548,
        "timestamp": "2025-12-17T13:48:36.281713+00:00",
        "meta_object_name": "STARLINK-36088",
        "meta_object_id": "2025-286S",
        "meta_epoch": "2025-12-17T06:00:00.999648",
        "meta_mean_motion": 15.86705674,
        "meta_eccentricity": 9.312e-05,
        "meta_inclination": 53.1565,
        "meta_ra_of_asc_node": 27.7335,
        "meta_arg_of_pericenter": 78.9204,
        "meta_mean_anomaly": 4.0231,
        "meta_ephemeris_type": 0,
        "meta_classification_type": "U",
        "meta_norad_cat_id": 66941,
        "meta_element_set_no": 999,
        "meta_rev_at_epoch": 271,
        "meta_bstar": -0.0062041589,
        "meta_mean_motion_dot": -0.01409977,
        "meta_mean_motion_ddot": 0,
        "tle_line1": "1 66941U 25286S   25351.25001157 -.01409977  00000+0 -62042-2 0  9990",
        "tle_line2": "2 66941  53.1565  27.7335 0000931  78.9204   4.0231 15.86705674  2712"
      },
      "geometry": {
        "type": "Point",
        "coordinates": [
          -178.79077478151757,
          29.296053459394674
        ]
      }
    },
    {
      "type": "Feature",
      "properties": {
        "norad_id": 66942,
        "name": "STARLINK-36100",
        "group": "last-30-days",
        "lat": 24.62214357100637,
        "lon": -174.02365627943084,
        "alt_km": 311.13114865655916,
        "timestamp": "2025-12-17T13:48:36.281723+00:00",
        "meta_object_name": "STARLINK-36100",
        "meta_object_id": "2025-286T",
        "meta_epoch": "2025-12-17T06:00:00.999648",
        "meta_mean_motion": 15.86771248,
        "meta_eccentricity": 7.504e-05,
        "meta_inclination": 53.1562,
        "meta_ra_of_asc_node": 27.7205,
        "meta_arg_of_pericenter": 93.3992,
        "meta_mean_anomaly": 355.7917,
        "meta_ephemeris_type": 0,
        "meta_classification_type": "U",
        "meta_norad_cat_id": 66942,
        "meta_element_set_no": 999,
        "meta_rev_at_epoch": 264,
        "meta_bstar": -0.0062425434,
        "meta_mean_motion_dot": -0.01421426,
        "meta_mean_motion_ddot": 0,
        "tle_line1": "1 66942U 25286T   25351.25001157 -.01421426  00000+0 -62425-2 0  9999",
        "tle_line2": "2 66942  53.1562  27.7205 0000750  93.3992 355.7917 15.86771248  2649"
      },
      "geometry": {
        "type": "Point",
        "coordinates": [
          -174.02365627943084,
          24.62214357100637
        ]
      }
    },
    {
      "type": "Feature",
      "properties": {
        "norad_id": 66943,
        "name": "STARLINK-36109",
        "group": "last-30-days",
        "lat": 22.761314888819573,
        "lon": -172.2664197169975,
        "alt_km": 311.48110684455787,
        "timestamp": "2025-12-17T13:48:36.281734+00:00",
        "meta_object_name": "STARLINK-36109",
        "meta_object_id": "2025-286U",
        "meta_epoch": "2025-12-17T06:00:00.999648",
        "meta_mean_motion": 15.867854,
        "meta_eccentricity": 7.923e-05,
        "meta_inclination": 53.156,
        "meta_ra_of_asc_node": 27.7154,
        "meta_arg_of_pericenter": 87.4857,
        "meta_mean_anomaly": 4.153,
        "meta_ephemeris_type": 0,
        "meta_classification_type": "U",
        "meta_norad_cat_id": 66943,
        "meta_element_set_no": 999,
        "meta_rev_at_epoch": 264,
        "meta_bstar": -0.0062891038,
        "meta_mean_motion_dot": -0.01431513,
        "meta_mean_motion_ddot": 0,
        "tle_line1": "1 66943U 25286U   25351.25001157 -.01431513  00000+0 -62891-2 0  9995",
        "tle_line2": "2 66943  53.1560  27.7154 0000792  87.4857   4.1530 15.86785400  2642"
      },
      "geometry": {
        "type": "Point",
        "coordinates": [
          -172.2664197169975,
          22.761314888819573
        ]
      }
    },
    {
      "type": "Feature",
      "properties": {
        "norad_id": 66944,
        "name": "STARLINK-36112",
        "group": "last-30-days",
        "lat": 21.207977977680684,
        "lon": -170.84920163412116,
        "alt_km": 311.74948964119994,
        "timestamp": "2025-12-17T13:48:36.281744+00:00",
        "meta_object_name": "STARLINK-36112",
        "meta_object_id": "2025-286V",
        "meta_epoch": "2025-12-17T06:00:00.999648",
        "meta_mean_motion": 15.86809617,
        "meta_eccentricity": 8.704e-05,
        "meta_inclination": 53.1561,
        "meta_ra_of_asc_node": 27.7111,
        "meta_arg_of_pericenter": 81.306,
        "meta_mean_anomaly": 12.3421,
        "meta_ephemeris_type": 0,
        "meta_classification_type": "U",
        "meta_norad_cat_id": 66944,
        "meta_element_set_no": 999,
        "meta_rev_at_epoch": 271,
        "meta_bstar": -0.0063211599,
        "meta_mean_motion_dot": -0.01439386,
        "meta_mean_motion_ddot": 0,
        "tle_line1": "1 66944U 25286V   25351.25001157 -.01439386  00000+0 -63212-2 0  9990",
        "tle_line2": "2 66944  53.1561  27.7111 0000870  81.3060  12.3421 15.86809617  2718"
      },
      "geometry": {
        "type": "Point",
        "coordinates": [
          -170.84920163412116,
          21.207977977680684
        ]
      }
    },
    {
      "type": "Feature",
      "properties": {
        "norad_id": 66945,
        "name": "STARLINK-36110",
        "group": "last-30-days",
        "lat": 19.35552444066609,
        "lon": -169.21105097337633,
        "alt_km": 312.02390644832394,
        "timestamp": "2025-12-17T13:48:36.281753+00:00",
        "meta_object_name": "STARLINK-36110",
        "meta_object_id": "2025-286W",
        "meta_epoch": "2025-12-17T06:00:00.999648",
        "meta_mean_motion": 15.86828596,
        "meta_eccentricity": 8.505e-05,
        "meta_inclination": 53.1559,
        "meta_ra_of_asc_node": 27.706,
        "meta_arg_of_pericenter": 83.7098,
        "meta_mean_anomaly": 12.3298,
        "meta_ephemeris_type": 0,
        "meta_classification_type": "U",
        "meta_norad_cat_id": 66945,
        "meta_element_set_no": 999,
        "meta_rev_at_epoch": 271,
        "meta_bstar": -0.0063760565,
        "meta_mean_motion_dot": -0.01451353,
        "meta_mean_motion_ddot": 0,
        "tle_line1": "1 66945U 25286W   25351.25001157 -.01451353  00000+0 -63761-2 0  9998",
        "tle_line2": "2 66945  53.1559  27.7060 0000850  83.7098  12.3298 15.86828596  2713"
      },
      "geometry": {
        "type": "Point",
        "coordinates": [
          -169.21105097337633,
          19.35552444066609
        ]
      }
    },
    {
      "type": "Feature",
      "properties": {
        "norad_id": 66946,
        "name": "STARLINK-36115",
        "group": "last-30-days",
        "lat": 17.69115374495278,
        "lon": -167.78120973413036,
        "alt_km": 312.2871558678862,
        "timestamp": "2025-12-17T13:48:36.281763+00:00",
        "meta_object_name": "STARLINK-36115",
        "meta_object_id": "2025-286X",
        "meta_epoch": "2025-12-17T06:00:00.999648",
        "meta_mean_motion": 15.8684823,
        "meta_eccentricity": 9.216e-05,
        "meta_inclination": 53.156,
        "meta_ra_of_asc_node": 27.7015,
        "meta_arg_of_pericenter": 81.004,
        "meta_mean_anomaly": 17.1616,
        "meta_ephemeris_type": 0,
        "meta_classification_type": "U",
        "meta_norad_cat_id": 66946,
        "meta_element_set_no": 999,
        "meta_rev_at_epoch": 271,
        "meta_bstar": -0.0063951,
        "meta_mean_motion_dot": -0.01456379,
        "meta_mean_motion_ddot": 0,
        "tle_line1": "1 66946U 25286X   25351.25001157 -.01456379  00000+0 -63951-2 0  9993",
        "tle_line2": "2 66946  53.1560  27.7015 0000921  81.0040  17.1616 15.86848230  2717"
      },
      "geometry": {
        "type": "Point",
        "coordinates": [
          -167.78120973413036,
          17.69115374495278
        ]
      }
    }
  ]
}